#dP2023 11  8 18  0  0.00000000      96 __u+U IGS20 EXT  IAC
## 2287 324000.00000000   900.00000000 60256 0.7500000000000
+  117   C06C07C08C09C10C11C12C13C14C16C19C20C21C22C23C24C25
+        C26C27C28C29C30C32C33C34C35C36C37C38C39C40C41C42C43
+        C44C45C46E02E03E04E05E07E08E09E10E11E12E13E15E19E21
+        E24E25E26E27E30E31E33E34E36G01G02G03G04G05G06G07G08
+        G09G10G11G12G13G14G15G16G17G18G19G20G21G22G23G24G26
+        G27G28G29G30G31G32J02J03J04R01R02R03R04R05R07R08R09
+        R11R12R13R14R15R16R17R18R19R20R21R22R24R25R26  0  0
++        11  8 10 10 11  9 10  9  9  9  9  9  7  9  7  9  9
++         8 10  8  7  7  8  8  7  9  8  8 10 10  8  9  9  8
++         9  8  8  7  8  7  7  7  8  7  8  8  8  8  8  9  8
++         7  7  7  9  9  8  8  7  8  7  7  6  0  6  0  5  5
++         0  7  7  0  7  7  0  0  8  6  0  0  7  9  6  7  7
++         6  0  0  6  7  6 10 10  9  9  9  9  8  7  9  9  6
++         8  8  7  9 10  8  7  9  7  9  8  9  7  8 11  0  0
%c M  cc GPS ccc cccc cccc cccc cccc ccccc ccccc ccccc ccccc
%c cc cc ccc ccc cccc cccc cccc cccc ccccc ccccc ccccc ccccc
%f  0.0000000  0.000000000  0.00000000000  0.000000000000000
%f  0.0000000  0.000000000  0.00000000000  0.000000000000000
%i    0    0    0    0      0      0      0      0         0
%i    0    0    0    0      0      0      0      0         0
/* IAC                                ULTRA-RAPID PREDICTION
/* S/V CLOCKS ARE ALIGNED TO GNSS TIME                      
/* G:C1WC2W R:C1PC2P E:C1XC5X C:C2IC6I J:C1CC2S             
/* PCV:IGS20_2280 OL/AL:FES2004  NONE     YN ORB:CoN CLK:CoN
*  2023 11 08 23  0  0.00000000
PC06 -18417.530658  33470.734699 -18109.442630     14.323704
PC07  -4480.249614  37138.030877 -19186.910220   -288.085134
PC08  -6192.363511  19436.378906  36895.961924    251.457027
PC09 -11791.269395  32015.277199 -24732.052921    -64.261140
PC10   2873.795035  39792.534066 -12456.725802    -10.174961
PC11 -12522.055706  24453.342819   4905.679539    246.120575
PC12 -19889.220541  14531.248583 -13057.647042    866.185064
PC13    650.511792  22531.719593  35814.028696    379.811581
PC14  -1862.429976  21671.520221  17459.856562    746.075218
PC16 -22071.944575  32986.672522 -14457.123597   -165.913552
PC19  -5873.330266 -25368.126312 -10040.760339   -973.301713
PC20   7913.908111 -16011.995646 -21444.817765    133.518433
PC21 -18147.815110  -3978.652253  20833.392642   -969.219789
PC22 -17025.465240 -20710.253494   7766.472360   -232.985004
PC23  19127.015978  12304.234498 -16177.180647   -825.627433
PC24 -20099.023450  10894.647391 -15998.260290    577.179371
PC25    637.414411  16300.025889 -22653.928343    251.313204
PC26 -27875.492219    271.394961   -733.514906   -203.465967
PC27  19588.347758  -6285.230019  18837.572667    225.328822
PC28  11705.457337  11194.289807  22733.314362    169.939829
PC29   3992.557284 -24543.759491 -12668.701020    198.777436
PC30  16843.910236 -21606.804543   5257.353277     -7.982629
PC32  18208.929345   3947.305371 -20766.441324   -533.687810
PC33   5916.987628  25304.137403  10153.663239   -946.301886
PC34 -16227.139787  22385.193119  -3860.882952    299.166059
PC35 -12277.229964 -10651.898913 -22688.585716    507.159327
PC36    797.123072 -16286.438330  22665.401003   -142.886193
PC37  27909.904583    849.916841     30.237301   -879.918149
PC38 -15421.070324  18778.002403  34467.071118    116.464866
PC39 -23341.614213  33803.758075 -10043.517899     -5.591553
PC40  -8506.414332  34147.966113 -23008.817260    -43.253164
PC41  16819.751323  21122.065325  -6997.689214   -871.381359
PC42  -9077.602443  14677.788701  21960.358249   -503.363018
PC43  -4712.741906  24812.684412  11882.714791     47.440025
PC44 -19424.829427   6781.755309 -18874.084106    286.893400
PC45 -19560.851447 -12001.854075  15853.191567    -44.258283
PC46  19227.479019 -11301.737801  16793.592424    -98.259384
PE02 -22190.059111 -19112.850892   4222.966206     76.832624
PE03 -11815.832796 -19347.459934  19025.587174    -72.166870
PE04  17103.901513  -2112.689945 -24066.827674   -253.092506
PE05      0.000000      0.000000      0.000000     35.531665
PE07 -12511.728372  22074.473813  15235.164261    -86.774267
PE08 -16944.193959   1490.055149  24216.282231   -174.052684
PE09  12470.614444 -21991.326724 -15410.008402   -220.828591
PE10  26990.469137 -12128.443432   1008.087299   -577.406046
PE11  22201.118223 -17180.915489  -9384.488307   3186.114570
PE12  27242.851817  -5631.375920  10104.550179   -769.197969
PE13 -22658.148902  16931.949687   8728.179440    -19.606133
PE15 -27126.088751   5351.619959 -10555.617120    -67.892624
PE19  10374.770088  21461.947215 -17552.585937  -1254.745711
PE21   6941.274487  21177.131206 -19483.603598   -563.187528
PE24  13683.057141 -10646.945145  23982.376062   -421.057576
PE25  -6545.049524 -21091.958956  19711.684275     -3.635771
PE26  -4205.254989  18413.018001  22797.739722    275.325802
PE27 -13125.033414  11069.351413 -24106.407247   -195.102757
PE30 -25319.163459  -5786.933056 -14191.029755   -646.544070
PE31  25243.820381   5447.991506  14481.066873     -9.685582
PE33  15106.773395   9597.602275  23586.501800      1.958236
PE34 -15650.553116  -9181.074722 -23382.288469    -76.895815
PE36   5021.368261 -18433.173786 -22602.169932   -141.366753
PG01   4948.536508 -16716.459592 -20271.508995    163.202971
PG02      0.000000      0.000000      0.000000   -531.491021
PG03      0.000000      0.000000      0.000000    -26.886898
PG04    558.885035 -26215.072839   3775.536043    207.570967
PG05      0.000000      0.000000      0.000000   -149.650101
PG06 -24689.449642   5063.357874  -8469.183555    510.913263
PG07      0.000000      0.000000      0.000000     18.522632
PG08      0.000000      0.000000      0.000000   -151.174444
PG09  -7756.170553 -21777.927525  12940.650560     -8.622375
PG10      0.000000      0.000000      0.000000    -60.616047
PG11 -23366.251763  12093.915112   3437.242241   -451.774294
PG12   2160.558798  18718.749451 -19026.084073   -444.910500
PG13 -13181.923713  19126.541807  12476.866495    593.176399
PG14 -22916.154604 -12738.649000  -4771.755183    237.773176
PG15  -1767.885914  25914.436248   4450.448635     95.227524
PG16  14692.326431  -6603.023528  20883.140187   -425.410177
PG17 -13236.531718  -8388.378012 -20987.676565    723.418626
PG18      0.000000      0.000000      0.000000   -473.524267
PG19 -15377.182323    940.940595 -21793.118139    396.270092
PG20 -19118.757514   4990.167684  17707.444972    402.612716
PG21  13382.418546 -18083.740053 -12835.782736    144.766322
PG22 -22144.547709  -8495.237841 -11208.549268     87.472070
PG23  20278.227339  16778.584844   4259.839222     95.742850
PG24  -8352.251610  19099.899978 -16609.492919   -366.642547
PG26  21631.502019   -501.656503  15506.233992    217.952953
PG27  12633.233097 -16285.038514  16254.291663    -67.230404
PG28  24105.573432  -4120.770965 -10392.087366    -41.982815
PG29   5276.911001  22456.011847  13030.490867   -610.232266
PG30 -21613.527586  -2636.473017  15507.851022   -470.272441
PG31  25002.080270  -9450.031815  -1995.347590   -225.550504
PG32      0.000000      0.000000      0.000000   -583.392825
PJ02 -23062.558354  18423.275670 -25417.701113     -0.122001
PJ03 -28864.808184  30803.991379   6097.970244     -7.600912
PJ04 -26159.429627  26637.207749  25489.017343     72.117124
PR01   1529.864664 -19430.057283 -16464.493046     69.401120
PR02  -7563.065904 -24320.504264    100.379148    -22.349406
PR03 -12798.514555 -14940.996070  16236.762785     88.656076
PR04 -10574.258774   2178.425614  23132.311342    210.277401
PR05  -2910.431871  18294.305547  17556.819563    121.932670
PR07  12829.996799  14363.910338 -16724.255678     68.691356
PR08  10599.182854  -2429.271261 -23022.311335    -73.218743
PR09   9951.562029  12004.037134 -20144.933724    152.154958
PR11  23799.626686    408.908601   9158.220583   -211.817092
PR12   9615.158832  -8730.741593  21980.420919     33.221025
PR13  -7623.962181 -11905.650752  21215.651459    -41.090639
PR14 -23151.202461  -8172.608724   6964.033506     25.514248
PR15 -23293.516321    154.557366 -10381.315176     84.874476
PR16  -9864.155370   8524.141874 -21922.809029     20.441798
PR17 -11700.797000  -2460.092397 -22510.547883     33.152183
PR18 -18774.945010  11398.836139 -12986.057771    110.995037
PR19 -17458.986102  18516.606445   1650.312483   -253.953532
PR20  -3651.999251  15953.793866  19592.384548   -103.201495
PR21  12153.986392   1806.995210  22365.162432    -51.920585
PR22  19404.890471 -11312.448339  12112.809456     92.607383
PR24   2259.084811 -16043.307399 -19686.849071    -31.406489
PR25  11860.558948   3117.057276  22380.022183     -6.290723
PR26  10764.770036  -1923.290081 -23029.295813    -17.514845
EOF
